[
    {
        "Altitude(m)": 704021.7139861411,
        "Argument of Periapsis(deg)": 0.006834072711976239,
        "Eccentricity": 0.0,
        "Inclination(deg)": 45.0,
        "Latitude(deg)": 28.43537851398082,
        "Longitude(deg)": 126.9607121719194,
        "Mean Anomaly(deg)": 137.8290299884885,
        "RAAN(deg)": 79.99354883512507,
        "Satellite Name": "Constellation 1 360",
        "Satellite Number": 360,
        "Semi-Major Axis(m)": 7083131.272910544,
        "Time(s)": 114
    },
    {
        "Altitude(m)": 704016.2111194358,
        "Argument of Periapsis(deg)": 0.006894020718221645,
        "Eccentricity": 0.0,
        "Inclination(deg)": 45.0,
        "Latitude(deg)": 28.399021366973983,
        "Longitude(deg)": 127.01194397756457,
        "Mean Anomaly(deg)": 137.88973112873845,
        "RAAN(deg)": 79.99349224595952,
        "Satellite Name": "Constellation 1 360",
        "Satellite Number": 360,
        "Semi-Major Axis(m)": 7083131.272910544,
        "Time(s)": 115
    },
    {
        "Altitude(m)": 704010.7143144454,
        "Argument of Periapsis(deg)": 0.006953968724467052,
        "Eccentricity": 0.0,
        "Inclination(deg)": 45.0,
        "Latitude(deg)": 28.362641571810745,
        "Longitude(deg)": 127.06313802715715,
        "Mean Anomaly(deg)": 137.9504322689883,
        "RAAN(deg)": 79.99343565679393,
        "Satellite Name": "Constellation 1 360",
        "Satellite Number": 360,
        "Semi-Major Axis(m)": 7083131.272910544,
        "Time(s)": 116
    },
    {
        "Altitude(m)": 704005.2236100859,
        "Argument of Periapsis(deg)": 0.007013916730712457,
        "Eccentricity": 0.0,
        "Inclination(deg)": 45.0,
        "Latitude(deg)": 28.32623917764829,
        "Longitude(deg)": 127.11429438032256,
        "Mean Anomaly(deg)": 138.0111334092382,
        "RAAN(deg)": 79.99337906762837,
        "Satellite Name": "Constellation 1 360",
        "Satellite Number": 360,
        "Semi-Major Axis(m)": 7083131.272910544,
        "Time(s)": 117
    },
    {
        "Altitude(m)": 703999.7390452519,
        "Argument of Periapsis(deg)": 0.007073864736957864,
        "Eccentricity": 0.0,
        "Inclination(deg)": 45.0,
        "Latitude(deg)": 28.289814233573164,
        "Longitude(deg)": 127.16541309671696,
        "Mean Anomaly(deg)": 138.0718345494881,
        "RAAN(deg)": 79.99332247846279,
        "Satellite Name": "Constellation 1 360",
        "Satellite Number": 360,
        "Semi-Major Axis(m)": 7083131.272910544,
        "Time(s)": 118
    },
    {
        "Altitude(m)": 703994.2606588289,
        "Argument of Periapsis(deg)": 0.0071338127432032696,
        "Eccentricity": 0.0,
        "Inclination(deg)": 45.0,
        "Latitude(deg)": 28.25336678860157,
        "Longitude(deg)": 127.21649406792976,
        "Mean Anomaly(deg)": 138.132535689738,
        "RAAN(deg)": 79.99326588929723,
        "Satellite Name": "Constellation 1 360",
        "Satellite Number": 360,
        "Semi-Major Axis(m)": 7083131.272910544,
        "Time(s)": 119
    },
    {
        "Altitude(m)": 703988.7884896954,
        "Argument of Periapsis(deg)": 0.007193760749448674,
        "Eccentricity": 0.0,
        "Inclination(deg)": 45.0,
        "Latitude(deg)": 28.21689689167868,
        "Longitude(deg)": 127.26753768987169,
        "Mean Anomaly(deg)": 138.19323682998785,
        "RAAN(deg)": 79.99320930013165,
        "Satellite Name": "Constellation 1 360",
        "Satellite Number": 360,
        "Semi-Major Axis(m)": 7083131.272910544,
        "Time(s)": 120
    },
    {
        "Altitude(m)": 703983.3225766959,
        "Argument of Periapsis(deg)": 0.007253708755694079,
        "Eccentricity": 0.0,
        "Inclination(deg)": 45.0,
        "Latitude(deg)": 28.180404591679796,
        "Longitude(deg)": 127.31854385419125,
        "Mean Anomaly(deg)": 138.25393797023779,
        "RAAN(deg)": 79.99315271096609,
        "Satellite Name": "Constellation 1 360",
        "Satellite Number": 360,
        "Semi-Major Axis(m)": 7083131.272910544,
        "Time(s)": 121
    },
    {
        "Altitude(m)": 703977.8629586834,
        "Argument of Periapsis(deg)": 0.0073136567619394854,
        "Eccentricity": 0.0,
        "Inclination(deg)": 45.0,
        "Latitude(deg)": 28.143889937409735,
        "Longitude(deg)": 127.36951262066269,
        "Mean Anomaly(deg)": 138.3146391104877,
        "RAAN(deg)": 79.99309612180052,
        "Satellite Name": "Constellation 1 360",
        "Satellite Number": 360,
        "Semi-Major Axis(m)": 7083131.272910544,
        "Time(s)": 122
    },
    {
        "Altitude(m)": 703972.4096744811,
        "Argument of Periapsis(deg)": 0.0073736047681848904,
        "Eccentricity": 0.0,
        "Inclination(deg)": 45.0,
        "Latitude(deg)": 28.107352977603046,
        "Longitude(deg)": 127.42044404908867,
        "Mean Anomaly(deg)": 138.37534025073757,
        "RAAN(deg)": 79.99303953263495,
        "Satellite Name": "Constellation 1 360",
        "Satellite Number": 360,
        "Semi-Major Axis(m)": 7083131.272910544,
        "Time(s)": 123
    },
    {
        "Altitude(m)": 703966.9627629027,
        "Argument of Periapsis(deg)": 0.007433552774430298,
        "Eccentricity": 0.0,
        "Inclination(deg)": 45.0,
        "Latitude(deg)": 28.070793760924047,
        "Longitude(deg)": 127.4713381992995,
        "Mean Anomaly(deg)": 138.4360413909875,
        "RAAN(deg)": 79.99298294346939,
        "Satellite Name": "Constellation 1 360",
        "Satellite Number": 360,
        "Semi-Major Axis(m)": 7083131.272910544,
        "Time(s)": 124
    },
    {
        "Altitude(m)": 703961.5222627524,
        "Argument of Periapsis(deg)": 0.007493500780675703,
        "Eccentricity": 0.0,
        "Inclination(deg)": 45.0,
        "Latitude(deg)": 28.034212335966846,
        "Longitude(deg)": 127.5221951311527,
        "Mean Anomaly(deg)": 138.4967425312374,
        "RAAN(deg)": 79.9929263543038,
        "Satellite Name": "Constellation 1 360",
        "Satellite Number": 360,
        "Semi-Major Axis(m)": 7083131.272910544,
        "Time(s)": 125
    },
    {
        "Altitude(m)": 703956.0882128061,
        "Argument of Periapsis(deg)": 0.007553448786921108,
        "Eccentricity": 0.0,
        "Inclination(deg)": 45.0,
        "Latitude(deg)": 27.997608751255783,
        "Longitude(deg)": 127.57301473643534,
        "Mean Anomaly(deg)": 138.55744367148728,
        "RAAN(deg)": 79.99286976513824,
        "Satellite Name": "Constellation 1 360",
        "Satellite Number": 360,
        "Semi-Major Axis(m)": 7083131.272910544,
        "Time(s)": 126
    },
    {
        "Altitude(m)": 703950.6606518326,
        "Argument of Periapsis(deg)": 0.007613396793166514,
        "Eccentricity": 0.0,
        "Inclination(deg)": 45.0,
        "Latitude(deg)": 27.960983055244597,
        "Longitude(deg)": 127.62379741125227,
        "Mean Anomaly(deg)": 138.61814481173718,
        "RAAN(deg)": 79.99281317597267,
        "Satellite Name": "Constellation 1 360",
        "Satellite Number": 360,
        "Semi-Major Axis(m)": 7083131.272910544,
        "Time(s)": 127
    },
    {
        "Altitude(m)": 703945.2396185881,
        "Argument of Periapsis(deg)": 0.007673344799411918,
        "Eccentricity": 0.0,
        "Inclination(deg)": 45.0,
        "Latitude(deg)": 27.924335296317622,
        "Longitude(deg)": 127.67454304744233,
        "Mean Anomaly(deg)": 138.67884595198709,
        "RAAN(deg)": 79.9927565868071,
        "Satellite Name": "Constellation 1 360",
        "Satellite Number": 360,
        "Semi-Major Axis(m)": 7083131.272910544,
        "Time(s)": 128
    },
    {
        "Altitude(m)": 703939.8251518103,
        "Argument of Periapsis(deg)": 0.007733292805657325,
        "Eccentricity": 0.0,
        "Inclination(deg)": 45.0,
        "Latitude(deg)": 27.887665522789234,
        "Longitude(deg)": 127.72525170496682,
        "Mean Anomaly(deg)": 138.739547092237,
        "RAAN(deg)": 79.99269999764154,
        "Satellite Name": "Constellation 1 360",
        "Satellite Number": 360,
        "Semi-Major Axis(m)": 7083131.272910544,
        "Time(s)": 129
    },
    {
        "Altitude(m)": 703934.4172902139,
        "Argument of Periapsis(deg)": 0.00779324081190273,
        "Eccentricity": 0.0,
        "Inclination(deg)": 45.0,
        "Latitude(deg)": 27.850973782903967,
        "Longitude(deg)": 127.77592344381188,
        "Mean Anomaly(deg)": 138.8002482324869,
        "RAAN(deg)": 79.99264340847596,
        "Satellite Name": "Constellation 1 360",
        "Satellite Number": 360,
        "Semi-Major Axis(m)": 7083131.272910544,
        "Time(s)": 130
    },
    {
        "Altitude(m)": 703929.0160725111,
        "Argument of Periapsis(deg)": 0.007853188818148135,
        "Eccentricity": 0.0,
        "Inclination(deg)": 45.0,
        "Latitude(deg)": 27.814260124836522,
        "Longitude(deg)": 127.82655832398775,
        "Mean Anomaly(deg)": 138.86094937273674,
        "RAAN(deg)": 79.9925868193104,
        "Satellite Name": "Constellation 1 360",
        "Satellite Number": 360,
        "Semi-Major Axis(m)": 7083131.272910544,
        "Time(s)": 131
    },
    {
        "Altitude(m)": 703923.6215373854,
        "Argument of Periapsis(deg)": 0.007913136824393542,
        "Eccentricity": 0.0,
        "Inclination(deg)": 45.0,
        "Latitude(deg)": 27.777524596692118,
        "Longitude(deg)": 127.87715640552832,
        "Mean Anomaly(deg)": 138.92165051298667,
        "RAAN(deg)": 79.99253023014482,
        "Satellite Name": "Constellation 1 360",
        "Satellite Number": 360,
        "Semi-Major Axis(m)": 7083131.272910544,
        "Time(s)": 132
    }
]